KUIPER-00061            
1 64521U 25134X   25211.55444019  .00025083  00000+0  72085-3 0  9998
2 64521  51.8737 152.1267 0004750 238.8247 121.2274 15.35655883  6481
KUIPER-00062            
1 64522U 25134Y   25211.58335648 -.00871680  00000+0 -30021-1 0  9995
2 64522  51.8768 151.9850 0004401 238.8555 292.2398 15.32167229  6481
KUIPER-00063            
1 64523U 25134Z   25211.20928454  .00002014  00000+0  66815-4 0  9996
2 64523  51.8748 153.5720 0003013 199.4430 160.6442 15.36279618  6439
KUIPER-00064            
1 64524U 25134AA  25211.12994565  .00018818  00000+0  51887-3 0  9995
2 64524  51.8762 153.7937 0001517 142.1261 217.9833 15.37140963  6725
KUIPER-00065            
1 64525U 25134AB  25211.58335648 -.01103348  00000+0 -40739-1 0  9995
2 64525  51.8722 152.2284 0007814 244.3576 141.2379 15.30112805  6722
KUIPER-00066            
1 64526U 25134AC  25211.13596775  .00018885  00000+0  52557-3 0  9998
2 64526  51.8760 153.8341 0001197 173.5907 186.5095 15.36848387  6426
KUIPER-00069            
1 64816U 25151A   25211.45369391  .00024701  00000+0  70962-3 0  9990
2 64816  51.8774 219.1956 0005265 186.4095 173.6825 15.35674563  3351
KUIPER-00070            
1 64817U 25151B   25211.50001157 -.00028231  00000+0 -87099-3 0  9993
2 64817  51.8781 219.0710 0004916 213.6119 358.3589 15.32742830  3358
