<?xml version="1.0" encoding="UTF-8"?>
<ndm xmlns:xsi="http://www.w3.org/2001/XMLSchema-instance" xsi:noNamespaceSchemaLocation="https://sanaregistry.org/r/ndmxml_unqualified/ndmxml-2.0.0-master-2.0.xsd">
<omm id="CCSDS_OMM_VERS" version="2.0">
<header><CREATION_DATE/><ORIGINATOR/></header><body><segment><metadata><OBJECT_NAME>KUIPER-00061</OBJECT_NAME><OBJECT_ID>2025-134X</OBJECT_ID><CENTER_NAME>EARTH</CENTER_NAME><REF_FRAME>TEME</REF_FRAME><TIME_SYSTEM>UTC</TIME_SYSTEM><MEAN_ELEMENT_THEORY>SGP4</MEAN_ELEMENT_THEORY></metadata><data><meanElements><EPOCH>2025-07-30T13:18:23.632416</EPOCH><MEAN_MOTION>15.35655883</MEAN_MOTION><ECCENTRICITY>.000475</ECCENTRICITY><INCLINATION>51.8737</INCLINATION><RA_OF_ASC_NODE>152.1267</RA_OF_ASC_NODE><ARG_OF_PERICENTER>238.8247</ARG_OF_PERICENTER><MEAN_ANOMALY>121.2274</MEAN_ANOMALY></meanElements><tleParameters><EPHEMERIS_TYPE>0</EPHEMERIS_TYPE><CLASSIFICATION_TYPE>U</CLASSIFICATION_TYPE><NORAD_CAT_ID>64521</NORAD_CAT_ID><ELEMENT_SET_NO>999</ELEMENT_SET_NO><REV_AT_EPOCH>648</REV_AT_EPOCH><BSTAR>.72085E-3</BSTAR><MEAN_MOTION_DOT>.25083E-3</MEAN_MOTION_DOT><MEAN_MOTION_DDOT>0</MEAN_MOTION_DDOT></tleParameters></data></segment></body></omm>
<omm id="CCSDS_OMM_VERS" version="2.0">
<header><CREATION_DATE/><ORIGINATOR/></header><body><segment><metadata><OBJECT_NAME>KUIPER-00062</OBJECT_NAME><OBJECT_ID>2025-134Y</OBJECT_ID><CENTER_NAME>EARTH</CENTER_NAME><REF_FRAME>TEME</REF_FRAME><TIME_SYSTEM>UTC</TIME_SYSTEM><MEAN_ELEMENT_THEORY>SGP4</MEAN_ELEMENT_THEORY></metadata><data><meanElements><EPOCH>2025-07-30T14:00:01.999872</EPOCH><MEAN_MOTION>15.32167229</MEAN_MOTION><ECCENTRICITY>.0004401</ECCENTRICITY><INCLINATION>51.8768</INCLINATION><RA_OF_ASC_NODE>151.9850</RA_OF_ASC_NODE><ARG_OF_PERICENTER>238.8555</ARG_OF_PERICENTER><MEAN_ANOMALY>292.2398</MEAN_ANOMALY></meanElements><tleParameters><EPHEMERIS_TYPE>0</EPHEMERIS_TYPE><CLASSIFICATION_TYPE>U</CLASSIFICATION_TYPE><NORAD_CAT_ID>64522</NORAD_CAT_ID><ELEMENT_SET_NO>999</ELEMENT_SET_NO><REV_AT_EPOCH>648</REV_AT_EPOCH><BSTAR>-.30021E-1</BSTAR><MEAN_MOTION_DOT>-.87168E-2</MEAN_MOTION_DOT><MEAN_MOTION_DDOT>0</MEAN_MOTION_DDOT></tleParameters></data></segment></body></omm>
<omm id="CCSDS_OMM_VERS" version="2.0">
<header><CREATION_DATE/><ORIGINATOR/></header><body><segment><metadata><OBJECT_NAME>KUIPER-00063</OBJECT_NAME><OBJECT_ID>2025-134Z</OBJECT_ID><CENTER_NAME>EARTH</CENTER_NAME><REF_FRAME>TEME</REF_FRAME><TIME_SYSTEM>UTC</TIME_SYSTEM><MEAN_ELEMENT_THEORY>SGP4</MEAN_ELEMENT_THEORY></metadata><data><meanElements><EPOCH>2025-07-30T05:01:22.184256</EPOCH><MEAN_MOTION>15.36279618</MEAN_MOTION><ECCENTRICITY>.0003013</ECCENTRICITY><INCLINATION>51.8748</INCLINATION><RA_OF_ASC_NODE>153.5720</RA_OF_ASC_NODE><ARG_OF_PERICENTER>199.4430</ARG_OF_PERICENTER><MEAN_ANOMALY>160.6442</MEAN_ANOMALY></meanElements><tleParameters><EPHEMERIS_TYPE>0</EPHEMERIS_TYPE><CLASSIFICATION_TYPE>U</CLASSIFICATION_TYPE><NORAD_CAT_ID>64523</NORAD_CAT_ID><ELEMENT_SET_NO>999</ELEMENT_SET_NO><REV_AT_EPOCH>643</REV_AT_EPOCH><BSTAR>.66815E-4</BSTAR><MEAN_MOTION_DOT>.2014E-4</MEAN_MOTION_DOT><MEAN_MOTION_DDOT>0</MEAN_MOTION_DDOT></tleParameters></data></segment></body></omm>
<omm id="CCSDS_OMM_VERS" version="2.0">
<header><CREATION_DATE/><ORIGINATOR/></header><body><segment><metadata><OBJECT_NAME>KUIPER-00064</OBJECT_NAME><OBJECT_ID>2025-134AA</OBJECT_ID><CENTER_NAME>EARTH</CENTER_NAME><REF_FRAME>TEME</REF_FRAME><TIME_SYSTEM>UTC</TIME_SYSTEM><MEAN_ELEMENT_THEORY>SGP4</MEAN_ELEMENT_THEORY></metadata><data><meanElements><EPOCH>2025-07-30T03:07:07.304160</EPOCH><MEAN_MOTION>15.37140963</MEAN_MOTION><ECCENTRICITY>.0001517</ECCENTRICITY><INCLINATION>51.8762</INCLINATION><RA_OF_ASC_NODE>153.7937</RA_OF_ASC_NODE><ARG_OF_PERICENTER>142.1261</ARG_OF_PERICENTER><MEAN_ANOMALY>217.9833</MEAN_ANOMALY></meanElements><tleParameters><EPHEMERIS_TYPE>0</EPHEMERIS_TYPE><CLASSIFICATION_TYPE>U</CLASSIFICATION_TYPE><NORAD_CAT_ID>64524</NORAD_CAT_ID><ELEMENT_SET_NO>999</ELEMENT_SET_NO><REV_AT_EPOCH>672</REV_AT_EPOCH><BSTAR>.51887E-3</BSTAR><MEAN_MOTION_DOT>.18818E-3</MEAN_MOTION_DOT><MEAN_MOTION_DDOT>0</MEAN_MOTION_DDOT></tleParameters></data></segment></body></omm>
<omm id="CCSDS_OMM_VERS" version="2.0">
<header><CREATION_DATE/><ORIGINATOR/></header><body><segment><metadata><OBJECT_NAME>KUIPER-00065</OBJECT_NAME><OBJECT_ID>2025-134AB</OBJECT_ID><CENTER_NAME>EARTH</CENTER_NAME><REF_FRAME>TEME</REF_FRAME><TIME_SYSTEM>UTC</TIME_SYSTEM><MEAN_ELEMENT_THEORY>SGP4</MEAN_ELEMENT_THEORY></metadata><data><meanElements><EPOCH>2025-07-30T14:00:01.999872</EPOCH><MEAN_MOTION>15.30112805</MEAN_MOTION><ECCENTRICITY>.0007814</ECCENTRICITY><INCLINATION>51.8722</INCLINATION><RA_OF_ASC_NODE>152.2284</RA_OF_ASC_NODE><ARG_OF_PERICENTER>244.3576</ARG_OF_PERICENTER><MEAN_ANOMALY>141.2379</MEAN_ANOMALY></meanElements><tleParameters><EPHEMERIS_TYPE>0</EPHEMERIS_TYPE><CLASSIFICATION_TYPE>U</CLASSIFICATION_TYPE><NORAD_CAT_ID>64525</NORAD_CAT_ID><ELEMENT_SET_NO>999</ELEMENT_SET_NO><REV_AT_EPOCH>672</REV_AT_EPOCH><BSTAR>-.40739E-1</BSTAR><MEAN_MOTION_DOT>-.1103348E-1</MEAN_MOTION_DOT><MEAN_MOTION_DDOT>0</MEAN_MOTION_DDOT></tleParameters></data></segment></body></omm>
<omm id="CCSDS_OMM_VERS" version="2.0">
<header><CREATION_DATE/><ORIGINATOR/></header><body><segment><metadata><OBJECT_NAME>KUIPER-00066</OBJECT_NAME><OBJECT_ID>2025-134AC</OBJECT_ID><CENTER_NAME>EARTH</CENTER_NAME><REF_FRAME>TEME</REF_FRAME><TIME_SYSTEM>UTC</TIME_SYSTEM><MEAN_ELEMENT_THEORY>SGP4</MEAN_ELEMENT_THEORY></metadata><data><meanElements><EPOCH>2025-07-30T03:15:47.613600</EPOCH><MEAN_MOTION>15.36848387</MEAN_MOTION><ECCENTRICITY>.0001197</ECCENTRICITY><INCLINATION>51.8760</INCLINATION><RA_OF_ASC_NODE>153.8341</RA_OF_ASC_NODE><ARG_OF_PERICENTER>173.5907</ARG_OF_PERICENTER><MEAN_ANOMALY>186.5095</MEAN_ANOMALY></meanElements><tleParameters><EPHEMERIS_TYPE>0</EPHEMERIS_TYPE><CLASSIFICATION_TYPE>U</CLASSIFICATION_TYPE><NORAD_CAT_ID>64526</NORAD_CAT_ID><ELEMENT_SET_NO>999</ELEMENT_SET_NO><REV_AT_EPOCH>642</REV_AT_EPOCH><BSTAR>.52557E-3</BSTAR><MEAN_MOTION_DOT>.18885E-3</MEAN_MOTION_DOT><MEAN_MOTION_DDOT>0</MEAN_MOTION_DDOT></tleParameters></data></segment></body></omm>
<omm id="CCSDS_OMM_VERS" version="2.0">
<header><CREATION_DATE/><ORIGINATOR/></header><body><segment><metadata><OBJECT_NAME>KUIPER-00069</OBJECT_NAME><OBJECT_ID>2025-151A</OBJECT_ID><CENTER_NAME>EARTH</CENTER_NAME><REF_FRAME>TEME</REF_FRAME><TIME_SYSTEM>UTC</TIME_SYSTEM><MEAN_ELEMENT_THEORY>SGP4</MEAN_ELEMENT_THEORY></metadata><data><meanElements><EPOCH>2025-07-30T10:53:19.153824</EPOCH><MEAN_MOTION>15.35674563</MEAN_MOTION><ECCENTRICITY>.0005265</ECCENTRICITY><INCLINATION>51.8774</INCLINATION><RA_OF_ASC_NODE>219.1956</RA_OF_ASC_NODE><ARG_OF_PERICENTER>186.4095</ARG_OF_PERICENTER><MEAN_ANOMALY>173.6825</MEAN_ANOMALY></meanElements><tleParameters><EPHEMERIS_TYPE>0</EPHEMERIS_TYPE><CLASSIFICATION_TYPE>U</CLASSIFICATION_TYPE><NORAD_CAT_ID>64816</NORAD_CAT_ID><ELEMENT_SET_NO>999</ELEMENT_SET_NO><REV_AT_EPOCH>335</REV_AT_EPOCH><BSTAR>.70962E-3</BSTAR><MEAN_MOTION_DOT>.24701E-3</MEAN_MOTION_DOT><MEAN_MOTION_DDOT>0</MEAN_MOTION_DDOT></tleParameters></data></segment></body></omm>
<omm id="CCSDS_OMM_VERS" version="2.0">
<header><CREATION_DATE/><ORIGINATOR/></header><body><segment><metadata><OBJECT_NAME>KUIPER-00070</OBJECT_NAME><OBJECT_ID>2025-151B</OBJECT_ID><CENTER_NAME>EARTH</CENTER_NAME><REF_FRAME>TEME</REF_FRAME><TIME_SYSTEM>UTC</TIME_SYSTEM><MEAN_ELEMENT_THEORY>SGP4</MEAN_ELEMENT_THEORY></metadata><data><meanElements><EPOCH>2025-07-30T12:00:00.999648</EPOCH><MEAN_MOTION>15.32742830</MEAN_MOTION><ECCENTRICITY>.0004916</ECCENTRICITY><INCLINATION>51.8781</INCLINATION><RA_OF_ASC_NODE>219.0710</RA_OF_ASC_NODE><ARG_OF_PERICENTER>213.6119</ARG_OF_PERICENTER><MEAN_ANOMALY>358.3589</MEAN_ANOMALY></meanElements><tleParameters><EPHEMERIS_TYPE>0</EPHEMERIS_TYPE><CLASSIFICATION_TYPE>U</CLASSIFICATION_TYPE><NORAD_CAT_ID>64817</NORAD_CAT_ID><ELEMENT_SET_NO>999</ELEMENT_SET_NO><REV_AT_EPOCH>335</REV_AT_EPOCH><BSTAR>-.87099E-3</BSTAR><MEAN_MOTION_DOT>-.28231E-3</MEAN_MOTION_DOT><MEAN_MOTION_DDOT>0</MEAN_MOTION_DDOT></tleParameters></data></segment></body></omm>

</ndm>
